SL-16 R/B               
1 22566U 93016B   26035.13753022  .00000046  00000+0  48189-4 0  9992
2 22566  71.0080 285.6545 0010008   1.0894 359.0248 14.15303771697426
COSMOS 2242             
1 22626U 93024A   26035.20328870  .00002913  00000+0  25411-3 0  9992
2 22626  82.5199 298.7429 0017887  60.3790 299.9211 14.96403573775386
SL-16 R/B               
1 22803U 93059B   26035.16251206  .00000267  00000+0  15605-3 0  9994
2 22803  70.9893  81.8322 0019484 262.2663  97.6248 14.17225080674788
ARIANE 40 R/B           
1 22830U 93061H   26035.17974300  .00000241  00000+0  10429-3 0  9996
2 22830  98.4987 104.7168 0011088  29.2951 330.8853 14.32842498689306
COSMOS 2278             
1 23087U 94023A   26035.14520601 -.00000243  00000+0 -10231-3 0  9993
2 23087  71.0507 245.2790 0006427  76.5890 283.5948 14.14364778640065
SL-16 R/B               
1 23088U 94023B   26034.49997705 -.00000180  00000+0 -68503-4 0  9990
2 23088  71.0000 142.6902 0004419 317.1200  42.9577 14.15003908641250
SL-16 R/B               
1 23343U 94074B   26035.11148169  .00000548  00000+0  80170-4 0  9992
2 23343  97.7150  67.2826 0006019 343.4853  84.3405 14.79366213682285
SL-16 R/B               
1 23405U 94077B   26035.20158924 -.00000122  00000+0 -37611-4 0  9996
2 23405  70.9815  62.9426 0004496 241.2514 118.8157 14.15556590611490
ARIANE 40+ R/B          
1 23561U 95021B   26035.17400025  .00000341  00000+0  12279-3 0  9990
2 23561  98.4566 107.0993 0005853 236.3210 150.3963 14.39746686614422
SL-16 R/B               
1 23705U 95058B   26034.57092472  .00000209  00000+0  13116-3 0  9990
2 23705  71.0189 251.8870 0012604 181.3263 178.7829 14.15489126563022
SL-16 R/B               
1 24298U 96051B   26034.88840411  .00000070  00000+0  64754-4 0  9991
2 24298  70.7567 246.7850 0017884 194.9600 165.0993 14.12405938516875
ORBVIEW 2 (SEASTAR)     
1 24883U 97037A   26035.16968829  .00000315  00000+0  12575-3 0  9997
2 24883  98.8508 198.6045 0002773 140.8036 219.3350 14.35467502503669
