CCSDS_OMM_VERS = 2.0
CREATION_DATE  = 
ORIGINATOR     = 

OBJECT_NAME    = SL-16 R/B
OBJECT_ID      = 1993-016B
CENTER_NAME    = EARTH
REF_FRAME      = TEME
TIME_SYSTEM    = UTC
MEAN_ELEMENT_THEORY = SGP/SGP4

EPOCH          = 2026-02-04T03:18:02.611008
MEAN_MOTION    = 14.15303771
ECCENTRICITY   = .0010008
INCLINATION    = 71.0080
RA_OF_ASC_NODE = 285.6545
ARG_OF_PERICENTER = 1.0894
MEAN_ANOMALY   = 359.0248

EPHEMERIS_TYPE = 0
CLASSIFICATION_TYPE = U
NORAD_CAT_ID   = 22566
ELEMENT_SET_NO = 999
REV_AT_EPOCH   = 69742
BSTAR          = .48189E-4
MEAN_MOTION_DOT = .46E-6
MEAN_MOTION_DDOT = 0

CCSDS_OMM_VERS = 2.0
CREATION_DATE  = 
ORIGINATOR     = 

OBJECT_NAME    = COSMOS 2242
OBJECT_ID      = 1993-024A
CENTER_NAME    = EARTH
REF_FRAME      = TEME
TIME_SYSTEM    = UTC
MEAN_ELEMENT_THEORY = SGP/SGP4

EPOCH          = 2026-02-04T04:52:44.143680
MEAN_MOTION    = 14.96403573
ECCENTRICITY   = .0017887
INCLINATION    = 82.5199
RA_OF_ASC_NODE = 298.7429
ARG_OF_PERICENTER = 60.3790
MEAN_ANOMALY   = 299.9211

EPHEMERIS_TYPE = 0
CLASSIFICATION_TYPE = U
NORAD_CAT_ID   = 22626
ELEMENT_SET_NO = 999
REV_AT_EPOCH   = 77538
BSTAR          = .25411E-3
MEAN_MOTION_DOT = .2913E-4
MEAN_MOTION_DDOT = 0

CCSDS_OMM_VERS = 2.0
CREATION_DATE  = 
ORIGINATOR     = 

OBJECT_NAME    = SL-16 R/B
OBJECT_ID      = 1993-059B
CENTER_NAME    = EARTH
REF_FRAME      = TEME
TIME_SYSTEM    = UTC
MEAN_ELEMENT_THEORY = SGP/SGP4

EPOCH          = 2026-02-04T03:54:01.041984
MEAN_MOTION    = 14.17225080
ECCENTRICITY   = .0019484
INCLINATION    = 70.9893
RA_OF_ASC_NODE = 81.8322
ARG_OF_PERICENTER = 262.2663
MEAN_ANOMALY   = 97.6248

EPHEMERIS_TYPE = 0
CLASSIFICATION_TYPE = U
NORAD_CAT_ID   = 22803
ELEMENT_SET_NO = 999
REV_AT_EPOCH   = 67478
BSTAR          = .15605E-3
MEAN_MOTION_DOT = .267E-5
MEAN_MOTION_DDOT = 0

CCSDS_OMM_VERS = 2.0
CREATION_DATE  = 
ORIGINATOR     = 

OBJECT_NAME    = ARIANE 40 R/B
OBJECT_ID      = 1993-061H
CENTER_NAME    = EARTH
REF_FRAME      = TEME
TIME_SYSTEM    = UTC
MEAN_ELEMENT_THEORY = SGP/SGP4

EPOCH          = 2026-02-04T04:18:49.795200
MEAN_MOTION    = 14.32842498
ECCENTRICITY   = .0011088
INCLINATION    = 98.4987
RA_OF_ASC_NODE = 104.7168
ARG_OF_PERICENTER = 29.2951
MEAN_ANOMALY   = 330.8853

EPHEMERIS_TYPE = 0
CLASSIFICATION_TYPE = U
NORAD_CAT_ID   = 22830
ELEMENT_SET_NO = 999
REV_AT_EPOCH   = 68930
BSTAR          = .10429E-3
MEAN_MOTION_DOT = .241E-5
MEAN_MOTION_DDOT = 0

CCSDS_OMM_VERS = 2.0
CREATION_DATE  = 
ORIGINATOR     = 

OBJECT_NAME    = COSMOS 2278
OBJECT_ID      = 1994-023A
CENTER_NAME    = EARTH
REF_FRAME      = TEME
TIME_SYSTEM    = UTC
MEAN_ELEMENT_THEORY = SGP/SGP4

EPOCH          = 2026-02-04T03:29:05.799264
MEAN_MOTION    = 14.14364778
ECCENTRICITY   = .0006427
INCLINATION    = 71.0507
RA_OF_ASC_NODE = 245.2790
ARG_OF_PERICENTER = 76.5890
MEAN_ANOMALY   = 283.5948

EPHEMERIS_TYPE = 0
CLASSIFICATION_TYPE = U
NORAD_CAT_ID   = 23087
ELEMENT_SET_NO = 999
REV_AT_EPOCH   = 64006
BSTAR          = -.10231E-3
MEAN_MOTION_DOT = -.243E-5
MEAN_MOTION_DDOT = 0

CCSDS_OMM_VERS = 2.0
CREATION_DATE  = 
ORIGINATOR     = 

OBJECT_NAME    = SL-16 R/B
OBJECT_ID      = 1994-023B
CENTER_NAME    = EARTH
REF_FRAME      = TEME
TIME_SYSTEM    = UTC
MEAN_ELEMENT_THEORY = SGP/SGP4

EPOCH          = 2026-02-03T11:59:58.017120
MEAN_MOTION    = 14.15003908
ECCENTRICITY   = .00044193
INCLINATION    = 71.0000
RA_OF_ASC_NODE = 142.6902
ARG_OF_PERICENTER = 317.1200
MEAN_ANOMALY   = 42.9577

EPHEMERIS_TYPE = 0
CLASSIFICATION_TYPE = U
NORAD_CAT_ID   = 23088
ELEMENT_SET_NO = 999
REV_AT_EPOCH   = 64125
BSTAR          = -.68503446E-4
MEAN_MOTION_DOT = -.18E-5
MEAN_MOTION_DDOT = 0

CCSDS_OMM_VERS = 2.0
CREATION_DATE  = 
ORIGINATOR     = 

OBJECT_NAME    = SL-16 R/B
OBJECT_ID      = 1994-074B
CENTER_NAME    = EARTH
REF_FRAME      = TEME
TIME_SYSTEM    = UTC
MEAN_ELEMENT_THEORY = SGP/SGP4

EPOCH          = 2026-02-04T02:40:32.018016
MEAN_MOTION    = 14.79366213
ECCENTRICITY   = .0006019
INCLINATION    = 97.7150
RA_OF_ASC_NODE = 67.2826
ARG_OF_PERICENTER = 343.4853
MEAN_ANOMALY   = 84.3405

EPHEMERIS_TYPE = 0
CLASSIFICATION_TYPE = U
NORAD_CAT_ID   = 23343
ELEMENT_SET_NO = 999
REV_AT_EPOCH   = 68228
BSTAR          = .8017E-4
MEAN_MOTION_DOT = .548E-5
MEAN_MOTION_DDOT = 0

CCSDS_OMM_VERS = 2.0
CREATION_DATE  = 
ORIGINATOR     = 

OBJECT_NAME    = SL-16 R/B
OBJECT_ID      = 1994-077B
CENTER_NAME    = EARTH
REF_FRAME      = TEME
TIME_SYSTEM    = UTC
MEAN_ELEMENT_THEORY = SGP/SGP4

EPOCH          = 2026-02-04T04:50:17.310336
MEAN_MOTION    = 14.15556590
ECCENTRICITY   = .0004496
INCLINATION    = 70.9815
RA_OF_ASC_NODE = 62.9426
ARG_OF_PERICENTER = 241.2514
MEAN_ANOMALY   = 118.8157

EPHEMERIS_TYPE = 0
CLASSIFICATION_TYPE = U
NORAD_CAT_ID   = 23405
ELEMENT_SET_NO = 999
REV_AT_EPOCH   = 61149
BSTAR          = -.37611E-4
MEAN_MOTION_DOT = -.122E-5
MEAN_MOTION_DDOT = 0

CCSDS_OMM_VERS = 2.0
CREATION_DATE  = 
ORIGINATOR     = 

OBJECT_NAME    = ARIANE 40+ R/B
OBJECT_ID      = 1995-021B
CENTER_NAME    = EARTH
REF_FRAME      = TEME
TIME_SYSTEM    = UTC
MEAN_ELEMENT_THEORY = SGP/SGP4

EPOCH          = 2026-02-04T04:10:33.621600
MEAN_MOTION    = 14.39746686
ECCENTRICITY   = .0005853
INCLINATION    = 98.4566
RA_OF_ASC_NODE = 107.0993
ARG_OF_PERICENTER = 236.3210
MEAN_ANOMALY   = 150.3963

EPHEMERIS_TYPE = 0
CLASSIFICATION_TYPE = U
NORAD_CAT_ID   = 23561
ELEMENT_SET_NO = 999
REV_AT_EPOCH   = 61442
BSTAR          = .12279E-3
MEAN_MOTION_DOT = .341E-5
MEAN_MOTION_DDOT = 0

CCSDS_OMM_VERS = 2.0
CREATION_DATE  = 
ORIGINATOR     = 

OBJECT_NAME    = SL-16 R/B
OBJECT_ID      = 1995-058B
CENTER_NAME    = EARTH
REF_FRAME      = TEME
TIME_SYSTEM    = UTC
MEAN_ELEMENT_THEORY = SGP/SGP4

EPOCH          = 2026-02-03T13:42:07.895808
MEAN_MOTION    = 14.15489126
ECCENTRICITY   = .00126047
INCLINATION    = 71.0189
RA_OF_ASC_NODE = 251.8870
ARG_OF_PERICENTER = 181.3263
MEAN_ANOMALY   = 178.7829

EPHEMERIS_TYPE = 0
CLASSIFICATION_TYPE = U
NORAD_CAT_ID   = 23705
ELEMENT_SET_NO = 999
REV_AT_EPOCH   = 56302
BSTAR          = .13115603E-3
MEAN_MOTION_DOT = .209E-5
MEAN_MOTION_DDOT = 0

CCSDS_OMM_VERS = 2.0
CREATION_DATE  = 
ORIGINATOR     = 

OBJECT_NAME    = SL-16 R/B
OBJECT_ID      = 1996-051B
CENTER_NAME    = EARTH
REF_FRAME      = TEME
TIME_SYSTEM    = UTC
MEAN_ELEMENT_THEORY = SGP/SGP4

EPOCH          = 2026-02-03T21:19:18.115104
MEAN_MOTION    = 14.12405938
ECCENTRICITY   = .0017884
INCLINATION    = 70.7567
RA_OF_ASC_NODE = 246.7850
ARG_OF_PERICENTER = 194.9600
MEAN_ANOMALY   = 165.0993

EPHEMERIS_TYPE = 0
CLASSIFICATION_TYPE = U
NORAD_CAT_ID   = 24298
ELEMENT_SET_NO = 999
REV_AT_EPOCH   = 51687
BSTAR          = .64754E-4
MEAN_MOTION_DOT = .7E-6
MEAN_MOTION_DDOT = 0

CCSDS_OMM_VERS = 2.0
CREATION_DATE  = 
ORIGINATOR     = 

OBJECT_NAME    = ORBVIEW 2 (SEASTAR)
OBJECT_ID      = 1997-037A
CENTER_NAME    = EARTH
REF_FRAME      = TEME
TIME_SYSTEM    = UTC
MEAN_ELEMENT_THEORY = SGP/SGP4

EPOCH          = 2026-02-04T04:04:21.068256
MEAN_MOTION    = 14.35467502
ECCENTRICITY   = .0002773
INCLINATION    = 98.8508
RA_OF_ASC_NODE = 198.6045
ARG_OF_PERICENTER = 140.8036
MEAN_ANOMALY   = 219.3350

EPHEMERIS_TYPE = 0
CLASSIFICATION_TYPE = U
NORAD_CAT_ID   = 24883
ELEMENT_SET_NO = 999
REV_AT_EPOCH   = 50366
BSTAR          = .12575E-3
MEAN_MOTION_DOT = .315E-5
MEAN_MOTION_DDOT = 0

